{"type": "FeatureCollection", "features": [ {"type": "Feature", "properties": {"norad_id": 43207, "name": "BEIDOU-3 M4 (C22)", "group": "beidou", "lat": 48.24226141495903, "lon": -158.32042084394132, "alt_km": 21524.61266499352, "timestamp": "2025-12-06T14:35:37.391270+00:00", "meta": {"OBJECT_NAME": "BEIDOU-3 M4 (C22)", "OBJECT_ID": "2018-018A", "EPOCH": "2025-12-02T03:19:43.852800", "MEAN_MOTION": 1.86230706, "ECCENTRICITY": 0.00040749, "INCLINATION": 56.4768, "RA_OF_ASC_NODE": 69.6557, "ARG_OF_PERICENTER": 15.1369, "MEAN_ANOMALY": 344.8773, "EPHEMERIS_TYPE": 0, "CLASSIFICATION_TYPE": "U", "NORAD_CAT_ID": 43207, "ELEMENT_SET_NO": 999, "REV_AT_EPOCH": 5307, "BSTAR": 0, "MEAN_MOTION_DOT": -4.5e-07, "MEAN_MOTION_DDOT": 0}, "tle": {"line1": "1 43207U 18018A   25336.13870200 -.00000045  00000+0  00000+0 0  9992", "line2": "2 43207  56.4768  69.6557 0004074  15.1369 344.8773  1.86230706 53076"}}, "geometry": {"type": "Point", "coordinates": [-158.32042084394132, 48.24226141495903]}}, {"type": "Feature", "properties": {"norad_id": 43208, "name": "BEIDOU-3 M3 (C21)", "group": "beidou", "lat": 52.43268102395724, "lon": 128.87458388100907, "alt_km": 21529.127741715718, "timestamp": "2025-12-06T14:35:37.391281+00:00", "meta": {"OBJECT_NAME": "BEIDOU-3 M3 (C21)", "OBJECT_ID": "2018-018B", "EPOCH": "2025-12-03T06:41:57.693408", "MEAN_MOTION": 1.86230862, "ECCENTRICITY": 0.0006282, "INCLINATION": 56.4772, "RA_OF_ASC_NODE": 69.6218, "ARG_OF_PERICENTER": 317.5873, "MEAN_ANOMALY": 42.3668, "EPHEMERIS_TYPE": 0, "CLASSIFICATION_TYPE": "U", "NORAD_CAT_ID": 43208, "ELEMENT_SET_NO": 999, "REV_AT_EPOCH": 5309, "BSTAR": 0, "MEAN_MOTION_DOT": -4.9e-07, "MEAN_MOTION_DDOT": 0}, "tle": {"line1": "1 43208U 18018B   25337.27913997 -.00000049  00000+0  00000+0 0  9994", "line2": "2 43208  56.4772  69.6218 0006282 317.5873  42.3668  1.86230862 53096"}}, "geometry": {"type": "Point", "coordinates": [128.87458388100907, 52.43268102395724]}}, {"type": "Feature", "properties": {"norad_id": 43245, "name": "BEIDOU-3 M9 (C29)", "group": "beidou", "lat": -51.022911833332344, "lon": -115.68447801529727, "alt_km": 21529.408870441886, "timestamp": "2025-12-06T14:35:37.391293+00:00", "meta": {"OBJECT_NAME": "BEIDOU-3 M9 (C29)", "OBJECT_ID": "2018-029A", "EPOCH": "2025-12-06T04:19:14.769120", "MEAN_MOTION": 1.86227839, "ECCENTRICITY": 0.00016618, "INCLINATION": 54.3718, "RA_OF_ASC_NODE": 306.6963, "ARG_OF_PERICENTER": 275.8871, "MEAN_ANOMALY": 84.077, "EPHEMERIS_TYPE": 0, "CLASSIFICATION_TYPE": "U", "NORAD_CAT_ID": 43245, "ELEMENT_SET_NO": 999, "REV_AT_EPOCH": 5230, "BSTAR": 0, "MEAN_MOTION_DOT": -6.9e-07, "MEAN_MOTION_DDOT": 0}, "tle": {"line1": "1 43245U 18029A   25340.18003205 -.00000069  00000+0  00000+0 0  9995", "line2": "2 43245  54.3718 306.6963 0001661 275.8871  84.0770  1.86227839 52305"}}, "geometry": {"type": "Point", "coordinates": [-115.68447801529727, -51.022911833332344]}}, {"type": "Feature", "properties": {"norad_id": 43246, "name": "BEIDOU-3 M10 (C30)", "group": "beidou", "lat": -23.713301249532282, "lon": -71.66447747630788, "alt_km": 21521.64287710866, "timestamp": "2025-12-06T14:35:37.391304+00:00", "meta": {"OBJECT_NAME": "BEIDOU-3 M10 (C30)", "OBJECT_ID": "2018-029B", "EPOCH": "2025-12-05T00:59:36.820032", "MEAN_MOTION": 1.86228856, "ECCENTRICITY": 0.00040279, "INCLINATION": 54.3703, "RA_OF_ASC_NODE": 306.7635, "ARG_OF_PERICENTER": 0.0249, "MEAN_ANOMALY": 359.9572, "EPHEMERIS_TYPE": 0, "CLASSIFICATION_TYPE": "U", "NORAD_CAT_ID": 43246, "ELEMENT_SET_NO": 999, "REV_AT_EPOCH": 5226, "BSTAR": 0, "MEAN_MOTION_DOT": -6.9e-07, "MEAN_MOTION_DDOT": 0}, "tle": {"line1": "1 43246U 18029B   25339.04139838 -.00000069  00000+0  00000+0 0  9991", "line2": "2 43246  54.3703 306.7635 0004027   0.0249 359.9572  1.86228856 52262"}}, "geometry": {"type": "Point", "coordinates": [-71.66447747630788, -23.713301249532282]}}, {"type": "Feature", "properties": {"norad_id": 43539, "name": "BEIDOU-2 IGSO-7 (C16)", "group": "beidou", "lat": -45.94874496007838, "lon": 30.84241251119968, "alt_km": 35407.4667751965, "timestamp": "2025-12-06T14:35:37.391315+00:00", "meta": {"OBJECT_NAME": "BEIDOU-2 IGSO-7 (C16)", "OBJECT_ID": "2018-057A", "EPOCH": "2025-12-05T22:34:51.695904", "MEAN_MOTION": 1.00258883, "ECCENTRICITY": 0.00924726, "INCLINATION": 55.1738, "RA_OF_ASC_NODE": 164.731, "ARG_OF_PERICENTER": 235.1961, "MEAN_ANOMALY": 125.0638, "EPHEMERIS_TYPE": 0, "CLASSIFICATION_TYPE": "U", "NORAD_CAT_ID": 43539, "ELEMENT_SET_NO": 999, "REV_AT_EPOCH": 2719, "BSTAR": 0, "MEAN_MOTION_DOT": -5.3e-07, "MEAN_MOTION_DDOT": 0}, "tle": {"line1": "1 43539U 18057A   25339.94087611 -.00000053  00000+0  00000+0 0  9990", "line2": "2 43539  55.1738 164.7310 0092472 235.1961 125.0638  1.00258883 27197"}}, "geometry": {"type": "Point", "coordinates": [30.84241251119968, -45.94874496007838]}}, {"type": "Feature", "properties": {"norad_id": 43581, "name": "BEIDOU-3 M5 (C23)", "group": "beidou", "lat": 0.21585504468600258, "lon": 8.704062327947156, "alt_km": 21534.38660119132, "timestamp": "2025-12-06T14:35:37.391326+00:00", "meta": {"OBJECT_NAME": "BEIDOU-3 M5 (C23)", "OBJECT_ID": "2018-062A", "EPOCH": "2025-12-05T19:16:28.653888", "MEAN_MOTION": 1.862286, "ECCENTRICITY": 0.00021216, "INCLINATION": 54.0891, "RA_OF_ASC_NODE": 188.8794, "ARG_OF_PERICENTER": 352.6439, "MEAN_ANOMALY": 7.436, "EPHEMERIS_TYPE": 0, "CLASSIFICATION_TYPE": "U", "NORAD_CAT_ID": 43581, "ELEMENT_SET_NO": 999, "REV_AT_EPOCH": 5003, "BSTAR": 0, "MEAN_MOTION_DOT": 8.2e-07, "MEAN_MOTION_DDOT": 0}, "tle": {"line1": "1 43581U 18062A   25339.80310942  .00000082  00000+0  00000+0 0  9995", "line2": "2 43581  54.0891 188.8794 0002121 352.6439   7.4360  1.86228600 50034"}}, "geometry": {"type": "Point", "coordinates": [8.704062327947156, 0.21585504468600258]}}, {"type": "Feature", "properties": {"norad_id": 43582, "name": "BEIDOU-3 M6 (C24)", "group": "beidou", "lat": -54.03594125686359, "lon": 101.39590222412906, "alt_km": 21549.093622906694, "timestamp": "2025-12-06T14:35:37.391337+00:00", "meta": {"OBJECT_NAME": "BEIDOU-3 M6 (C24)", "OBJECT_ID": "2018-062B", "EPOCH": "2025-12-04T14:12:56.874816", "MEAN_MOTION": 1.862296, "ECCENTRICITY": 0.00077069, "INCLINATION": 54.0887, "RA_OF_ASC_NODE": 188.9098, "ARG_OF_PERICENTER": 46.0149, "MEAN_ANOMALY": 314.1395, "EPHEMERIS_TYPE": 0, "CLASSIFICATION_TYPE": "U", "NORAD_CAT_ID": 43582, "ELEMENT_SET_NO": 999, "REV_AT_EPOCH": 5001, "BSTAR": 0, "MEAN_MOTION_DOT": 1.02e-06, "MEAN_MOTION_DDOT": 0}, "tle": {"line1": "1 43582U 18062B   25338.59232494  .00000102  00000+0  00000+0 0  9999", "line2": "2 43582  54.0887 188.9098 0007706  46.0149 314.1395  1.86229600 50019"}}, "geometry": {"type": "Point", "coordinates": [101.39590222412906, -54.03594125686359]}}, {"type": "Feature", "properties": {"norad_id": 43602, "name": "BEIDOU-3 M12 (C26)", "group": "beidou", "lat": -36.24312021978045, "lon": 155.60506134142372, "alt_km": 21531.66745505113, "timestamp": "2025-12-06T14:35:37.391348+00:00", "meta": {"OBJECT_NAME": "BEIDOU-3 M12 (C26)", "OBJECT_ID": "2018-067A", "EPOCH": "2025-12-05T01:36:30.437280", "MEAN_MOTION": 1.86227634, "ECCENTRICITY": 0.0009145, "INCLINATION": 54.1831, "RA_OF_ASC_NODE": 187.6237, "ARG_OF_PERICENTER": 40.6372, "MEAN_ANOMALY": 319.5174, "EPHEMERIS_TYPE": 0, "CLASSIFICATION_TYPE": "U", "NORAD_CAT_ID": 43602, "ELEMENT_SET_NO": 999, "REV_AT_EPOCH": 4950, "BSTAR": 0, "MEAN_MOTION_DOT": 9.5e-07, "MEAN_MOTION_DDOT": 0}, "tle": {"line1": "1 43602U 18067A   25339.06701895  .00000095  00000+0  00000+0 0  9997", "line2": "2 43602  54.1831 187.6237 0009145  40.6372 319.5174  1.86227634 49501"}}, "geometry": {"type": "Point", "coordinates": [155.60506134142372, -36.24312021978045]}}, {"type": "Feature", "properties": {"norad_id": 43603, "name": "BEIDOU-3 M11 (C25)", "group": "beidou", "lat": -33.6343023759365, "lon": 36.26942495038557, "alt_km": 21548.06894489863, "timestamp": "2025-12-06T14:35:37.391359+00:00", "meta": {"OBJECT_NAME": "BEIDOU-3 M11 (C25)", "OBJECT_ID": "2018-067B", "EPOCH": "2025-12-05T17:43:23.000160", "MEAN_MOTION": 1.86227161, "ECCENTRICITY": 0.00055761, "INCLINATION": 54.1804, "RA_OF_ASC_NODE": 187.565, "ARG_OF_PERICENTER": 36.5607, "MEAN_ANOMALY": 323.5589, "EPHEMERIS_TYPE": 0, "CLASSIFICATION_TYPE": "U", "NORAD_CAT_ID": 43603, "ELEMENT_SET_NO": 999, "REV_AT_EPOCH": 4954, "BSTAR": 0, "MEAN_MOTION_DOT": 8.4e-07, "MEAN_MOTION_DDOT": 0}, "tle": {"line1": "1 43603U 18067B   25339.73846065  .00000084  00000+0  00000+0 0  9999", "line2": "2 43603  54.1804 187.5650 0005576  36.5607 323.5589  1.86227161 49543"}}, "geometry": {"type": "Point", "coordinates": [36.26942495038557, -33.6343023759365]}}, {"type": "Feature", "properties": {"norad_id": 43622, "name": "BEIDOU-3 M13 (C32)", "group": "beidou", "lat": -52.498214973812956, "lon": -51.28581272643491, "alt_km": 21522.97195544627, "timestamp": "2025-12-06T14:35:37.391370+00:00", "meta": {"OBJECT_NAME": "BEIDOU-3 M13 (C32)", "OBJECT_ID": "2018-072A", "EPOCH": "2025-12-03T13:07:53.541408", "MEAN_MOTION": 1.86230692, "ECCENTRICITY": 0.00056735, "INCLINATION": 56.4512, "RA_OF_ASC_NODE": 69.1249, "ARG_OF_PERICENTER": 298.6305, "MEAN_ANOMALY": 61.3164, "EPHEMERIS_TYPE": 0, "CLASSIFICATION_TYPE": "U", "NORAD_CAT_ID": 43622, "ELEMENT_SET_NO": 999, "REV_AT_EPOCH": 4901, "BSTAR": 0, "MEAN_MOTION_DOT": -5e-07, "MEAN_MOTION_DDOT": 0}, "tle": {"line1": "1 43622U 18072A   25337.54714747 -.00000050  00000+0  00000+0 0  9998", "line2": "2 43622  56.4512  69.1249 0005673 298.6305  61.3164  1.86230692 49019"}}, "geometry": {"type": "Point", "coordinates": [-51.28581272643491, -52.498214973812956]}}]}